0 OPS 0856 DEB
1 23829U 66077F   13279.96443131  .00000769  00000-0  27374+0 0  2271
2 23829 090.0708 278.9126 0771696 283.2295 067.0465 08.63286069641313
0 OPS 0856 DEB
1 23829U 66077F   13279.96620142  .00000893  00000-0  31722+0 0  2281
2 23829 090.0924 278.9240 0774510 283.1736 072.5490 08.63283146641319
